NORAD_CAT_ID,OBJECT_NAME,OBJECT_TYPE,EPOCH,MEAN_MOTION,ECCENTRICITY,INCLINATION,RA_OF_ASC_NODE,ARG_OF_PERICENTER,MEAN_ANOMALY,BSTAR,MEAN_MOTION_DOT,MEAN_MOTION_DDOT,TLE_LINE0,TLE_LINE1,TLE_LINE2,SEMIMAJOR_AXIS,PERIOD,APOGEE,PERIGEE,DECAYED
52312.0,STARLINK-3752,PAYLOAD,2022-05-16 06:00:02,15.73159495,0.0002389,53.2149,253.2008,20.4419,168.2111,0.00052261,0.00073244,0.0,0 STARLINK-3752,1 52312U 22041BD  22136.25002315  .00073244  00000-0  52261-3 0  9993,2 52312  53.2149 253.2008 0002389  20.4419 168.2111 15.73159495  5094,6728.011,91.536,351.483,348.26800000000014,0.0
52312.0,STARLINK-3752,PAYLOAD,2022-05-16 12:00:00,15.73241389,0.0002518,53.2152,251.9653,18.1539,147.1018,-0.00092918,-0.00129296,0.0,0 STARLINK-3752,1 52312U 22041BD  22136.50001157 -.00129296  00000-0 -92918-3 0  9998,2 52312  53.2152 251.9653 0002518  18.1539 147.1018 15.73241389  5131,6727.776999999999,91.531,351.336,347.9480000000001,0.0
52312.0,STARLINK-3752,PAYLOAD,2022-05-16 14:00:01,15.7322119,0.0002587,53.2151,251.5535,16.2362,261.2595,-0.00093359,-0.00129789,0.0,0 STARLINK-3752,1 52312U 22041BD  22136.58334491 -.00129789  00000-0 -93359-3 0  9993,2 52312  53.2151 251.5535 0002587  16.2362 261.2595 15.73221190  1305,6727.835,91.532,351.44,347.959,0.0
52312.0,STARLINK-3752,PAYLOAD,2022-05-16 20:00:01,15.73135755,0.0002728,53.215,250.3166,9.8721,244.3278,0.00042387,0.0005912999999999,0.0,0 STARLINK-3752,1 52312U 22041BD  22136.83334491  .00059130  00000-0  42387-3 0  9996,2 52312  53.2150 250.3166 0002728   9.8721 244.3278 15.73135755  5197,6728.078,91.537,351.779,348.108,0.0
52312.0,STARLINK-3752,PAYLOAD,2022-05-16 22:00:00,15.73149367,0.0002691,53.2151,249.9038,9.1431,357.2714,0.00032989,0.00045835,0.0,0 STARLINK-3752,1 52312U 22041BD  22136.91667824  .00045835  00000-0  32989-3 0  9998,2 52312  53.2151 249.9038 0002691   9.1431 357.2714 15.73149367  1302,6728.04,91.536,351.715,348.094,0.0
52312.0,STARLINK-3752,PAYLOAD,2022-05-17 14:00:01,15.73268138,0.0002855,53.2148,246.6053,13.5177,170.7805,-0.00047485,-0.00066946,0.0,0 STARLINK-3752,1 52312U 22041BD  22137.58335648 -.00066946  00000-0 -47485-3 0  9993,2 52312  53.2148 246.6053 0002855  13.5177 170.7805 15.73268138  1304,6727.701,91.529,351.487,347.645,0.0
52312.0,STARLINK-3752,PAYLOAD,2022-05-17 20:00:01,15.73263047,0.0002949,53.2141,245.3683,12.61,148.3803,-0.00064601,-0.00090584,0.0,0 STARLINK-3752,1 52312U 22041BD  22137.83334491 -.00090584  00000-0 -64601-3 0  9990,2 52312  53.2141 245.3683 0002949  12.6100 148.3803 15.73263047  5343,6727.715,91.53,351.564,347.596,0.0
52312.0,STARLINK-3752,PAYLOAD,2022-05-17 22:00:01,15.73253718,0.0002877,53.2141,244.9551,13.0432,260.2585,-0.00067884,-0.00095066,0.0,0 STARLINK-3752,1 52312U 22041BD  22137.91668981 -.00095066  00000-0 -67884-3 0  9999,2 52312  53.2141 244.9551 0002877  13.0432 260.2585 15.73253718  1302,6727.7419999999975,91.53,351.543,347.671,0.0
52312.0,STARLINK-3752,PAYLOAD,2022-05-18 06:00:00,15.73196128,0.0002715,53.2143,243.3042,14.2595,347.9315,0.00010032,0.00013479,0.0,0 STARLINK-3752,1 52312U 22041BD  22138.25001157  .00013479  00000-0  10032-3 0  9992,2 52312  53.2143 243.3042 0002715  14.2595 347.9315 15.73196128  5417,6727.906,91.533,351.598,347.945,0.0
52312.0,STARLINK-3752,PAYLOAD,2022-05-18 14:00:01,15.73221434,0.0003073,53.2148,241.6573,14.6473,76.4679,-4.9194e-05,-7.529e-05,0.0,0 STARLINK-3752,1 52312U 22041BD  22138.58334491 -.00007529  00000-0 -49194-4 0  9991,2 52312  53.2148 241.6573 0003073  14.6473  76.4679 15.73221434  1309,6727.834,91.532,351.767,347.63199999999995,0.0
52312.0,STARLINK-3752,PAYLOAD,2022-05-18 20:00:01,15.73235078,0.0003155,53.2141,240.4198,13.689,54.1108,-0.00072752,-0.00101686,0.0,0 STARLINK-3752,1 52312U 22041BD  22138.83334491 -.00101686  00000-0 -72752-3 0  9993,2 52312  53.2141 240.4198 0003155  13.6890  54.1108 15.73235078  5500,6727.795,91.531,351.783,347.538,0.0
52312.0,STARLINK-3752,PAYLOAD,2022-05-18 22:00:00,15.73227401,0.0003103,53.2142,240.0069,14.546,165.4906,-0.00084978,-0.00118397,0.0,0 STARLINK-3752,1 52312U 22041BD  22138.91667824 -.00118397  00000-0 -84978-3 0  9991,2 52312  53.2142 240.0069 0003103  14.5460 165.4906 15.73227401  1307,6727.816999999999,91.532,351.77,347.594,0.0
52312.0,STARLINK-3752,PAYLOAD,2022-05-19 14:00:01,15.732129,0.0003178,53.2138,236.7086,5.877999999999999,352.0635,-0.00027269,-0.0003875,0.0,0 STARLINK-3752,1 52312U 22041BD  22139.58335648 -.00038750  00000-0 -27269-3 0  9995,2 52312  53.2138 236.7086 0003178   5.8780 352.0635 15.73212900  1304,6727.858,91.532,351.862,347.585,0.0
52312.0,STARLINK-3752,PAYLOAD,2022-05-19 22:00:00,15.73248268,0.0003226,53.2131,235.0582,5.6287,81.1839,-0.00012613,-0.00018328,0.0,0 STARLINK-3752,1 52312U 22041BD  22139.91667824 -.00018328  00000-0 -12613-3 0  9992,2 52312  53.2131 235.0582 0003226   5.6287  81.1839 15.73248268  5670,6727.7580000000025,91.53,351.793,347.452,0.0
52312.0,STARLINK-3752,PAYLOAD,2022-05-20 14:00:01,15.73200853,0.0003391,53.2135,231.76,12.0761,252.6388,-0.00018724,-0.00026827,0.0,0 STARLINK-3752,1 52312U 22041BD  22140.58334491 -.00026827  00000-0 -18724-3 0  9990,2 52312  53.2135 231.7600 0003391  12.0761 252.6388 15.73200853  5784,6727.893,91.533,352.039,347.476,0.0
52312.0,STARLINK-3752,PAYLOAD,2022-05-20 22:00:00,15.73205942,0.000337,53.2134,230.1094,8.4554,345.2009,-0.00047242,-0.00066443,0.0,0 STARLINK-3752,1 52312U 22041BD  22140.91667824 -.00066443  00000-0 -47242-3 0  9991,2 52312  53.2134 230.1094 0003370   8.4554 345.2009 15.73205942  1306,6727.878000000002,91.533,352.011,347.476,0.0
52312.0,STARLINK-3752,PAYLOAD,2022-05-21 06:00:00,15.73143266,0.0003307,53.2136,228.4589,11.7559,70.7963,7.4314e-06,4.18e-06,0.0,0 STARLINK-3752,1 52312U 22041BD  22141.25001157  .00000418  00000-0  74314-5 0  9990,2 52312  53.2136 228.4589 0003307  11.7559  70.7963 15.73143266  1308,6728.057,91.536,352.147,347.69699999999995,0.0
52312.0,STARLINK-3752,PAYLOAD,2022-05-21 14:00:01,15.73145712,0.0003677,53.2136,226.8114,12.5869,158.9165,0.00062572,0.00087937,0.0,0 STARLINK-3752,1 52312U 22041BD  22141.58335648  .00087937  00000-0  62572-3 0  9993,2 52312  53.2136 226.8114 0003677  12.5869 158.9165 15.73145712  5931,6728.05,91.536,352.389,347.441,0.0
52312.0,STARLINK-3752,PAYLOAD,2022-05-21 22:00:00,15.73241202,0.0003539,53.2136,225.1606,11.3829,248.9614,-0.0004918,-0.00069228,0.0,0 STARLINK-3752,1 52312U 22041BD  22141.91667824 -.00069228  00000-0 -49180-3 0  9999,2 52312  53.2136 225.1606 0003539  11.3829 248.9614 15.73241202  1306,6727.778,91.531,352.024,347.26199999999994,0.0
52312.0,STARLINK-3752,PAYLOAD,2022-05-22 06:00:00,15.73226714,0.0003432,53.2146,223.5103,11.9587,337.3099,-0.00030023,-0.00042609,0.0,0 STARLINK-3752,1 52312U 22041BD  22142.25001157 -.00042609  00000-0 -30023-3 0  9998,2 52312  53.2146 223.5103 0003432  11.9587 337.3099 15.73226714  6047,6727.819,91.532,351.99300000000005,347.375,0.0
52312.0,STARLINK-3752,PAYLOAD,2022-05-22 14:00:01,15.73183177,0.0003742,53.2152,221.8628,11.9723,66.2471,-0.00011525,-0.00016761,0.0,0 STARLINK-3752,1 52312U 22041BD  22142.58334491 -.00016761  00000-0 -11525-3 0  9990,2 52312  53.2152 221.8628 0003742  11.9723  66.2471 15.73183177  1304,6727.943,91.534,352.326,347.291,0.0
52312.0,STARLINK-3752,PAYLOAD,2022-05-22 22:00:01,15.73206799,0.0003669,53.2153,220.2117,10.2296,156.9785,0.00021399,0.00029532,0.0,0 STARLINK-3752,1 52312U 22041BD  22142.91668981  .00029532  00000-0  21399-3 0  9999,2 52312  53.2153 220.2117 0003669  10.2296 156.9785 15.73206799  6144,6727.876,91.533,352.209,347.272,0.0
52312.0,STARLINK-3752,PAYLOAD,2022-05-23 14:00:01,15.73223858,0.0003871,53.2152,216.9143,7.1854,337.8226,-0.00039677,-0.00056022,0.0,0 STARLINK-3752,1 52312U 22041BD  22143.58334491 -.00056022  00000-0 -39677-3 0  9993,2 52312  53.2152 216.9143 0003871   7.1854 337.8226 15.73223858  6251,6727.8269999999975,91.532,352.296,347.088,0.0
52312.0,STARLINK-3752,PAYLOAD,2022-05-23 20:00:01,15.73206468,0.0003575,53.2172,215.6767,5.9369,315.5957,-2.9006e-05,-4.695e-05,0.0,0 STARLINK-3752,1 52312U 22041BD  22143.83334491 -.00004695  00000-0 -29006-4 0  9996,2 52312  53.2172 215.6767 0003575   5.9369 315.5957 15.73206468  6295,6727.877,91.533,352.147,347.337,0.0
52312.0,STARLINK-3752,PAYLOAD,2022-05-23 22:00:01,15.73205505,0.0003545,53.2174,215.2638,4.9286,68.9037,-1.3376e-05,-2.502e-05,0.0,0 STARLINK-3752,1 52312U 22041BD  22143.91668981 -.00002502  00000-0 -13376-4 0  9997,2 52312  53.2174 215.2638 0003545   4.9286  68.9037 15.73205505  1300,6727.879,91.533,352.13,347.3590000000001,0.0
52312.0,STARLINK-3752,PAYLOAD,2022-05-24 04:00:00,15.73214909,0.0003573,53.215,214.0246,5.5153,45.1548,7.7765e-05,0.00010314,0.0,0 STARLINK-3752,1 52312U 22041BD  22144.16667824  .00010314  00000-0  77765-4 0  9990,2 52312  53.2150 214.0246 0003573   5.5153  45.1548 15.73214909  6348,6727.853,91.532,352.122,347.314,0.0
52312.0,STARLINK-3752,PAYLOAD,2022-05-24 14:00:01,15.73181398,0.0003998,53.2154,211.9657,2.4278,249.4364,0.00019655,0.00027038,0.0,0 STARLINK-3752,1 52312U 22041BD  22144.58334491  .00027038  00000-0  19655-3 0  9991,2 52312  53.2154 211.9657 0003998   2.4278 249.4364 15.73181398  1300,6727.948,91.534,352.50300000000016,347.12300000000016,0.0
52312.0,STARLINK-3752,PAYLOAD,2022-05-24 22:00:00,15.73248606,0.0003875,53.2156,210.3144,1.3829,339.4102,-0.00078258,-0.00109321,0.0,0 STARLINK-3752,1 52312U 22041BD  22144.91667824 -.00109321  00000-0 -78258-3 0  9999,2 52312  53.2156 210.3144 0003875   1.3829 339.4102 15.73248606  6468,6727.757,91.53,352.22900000000016,347.015,0.0
52312.0,STARLINK-3752,PAYLOAD,2022-05-25 12:00:00,15.7310074,0.0004168,53.2155,207.4294,4.5251,41.8388,0.0010937,0.00155126,0.0,0 STARLINK-3752,1 52312U 22041BD  22145.50001157  .00155126  00000-0  10937-2 0  9997,2 52312  53.2155 207.4294 0004168   4.5251  41.8388 15.73100740  6556,6728.178000000001,91.539,352.847,347.23900000000015,0.0
